STARLINK-1591           
1 46045U 20055U   26061.91668981  .00009188  00000+0  56198-3 0  9991
2 46045  53.0708 156.9736 0001495  95.7474 109.4303 15.10912214  5838
STARLINK-1524           
1 46047U 20055W   26061.53078497  .00000186  00000+0  18781-4 0  9994
2 46047  53.1562 147.0479 0001280  91.0060 269.1087 15.29351427307972
STARLINK-1527           
1 46048U 20055X   26061.47453175 -.00000356  00000+0  19060-8 0  9993
2 46048  53.1563 147.4353 0001594  89.8463 270.2720 15.29354703307943
STARLINK-1540           
1 46051U 20055AA  26061.56189538  .00004965  00000+0  18421-3 0  9990
2 46051  53.1592 146.9264 0000876  69.5323 290.5771 15.29366031307999
STARLINK-1541           
1 46052U 20055AB  26061.91668981  .00032278  00000+0  11277-2 0  9993
2 46052  53.1540 145.3324 0000913  72.7876 132.7132 15.29306484  5825
STARLINK-1543           
1 46053U 20055AC  26061.91668981  .00001782  00000+0  74140-4 0  9990
2 46053  53.1559 145.3526 0001305  98.0442  75.8192 15.29328655  5823
STARLINK-1548           
1 46054U 20055AD  26061.91668981 -.00012380  00000+0 -41734-3 0  9991
2 46054  53.1565 145.3538 0001090  76.4288  56.9213 15.29361238  5786
STARLINK-1554           
1 46055U 20055AE  26061.91668981  .00041014  00000+0  14278-2 0  9998
2 46055  53.1543 145.4884 0001751  73.0600  66.5759 15.29310292  5835
STARLINK-1564           
1 46058U 20055AH  26061.91668981 -.00003103  00000+0 -95111-4 0  9997
2 46058  53.1563 145.8262 0001074  70.8237  77.0990 15.29396168  5787
STARLINK-1570           
1 46059U 20055AJ  26061.52684518 -.00000617  00000+0 -90573-5 0  9994
2 46059  53.1575 147.1732 0001191  91.7705 268.3432 15.29361082307935
STARLINK-1572           
1 46060U 20055AK  26061.91668981 -.00014990  00000+0 -50810-3 0  9992
2 46060  53.1545 145.5119 0001285  89.9597 196.8188 15.29359932  5835
STARLINK-1573           
1 46061U 20055AL  26061.91668981 -.00010157  00000+0 -33109-3 0  9996
2 46061  53.1601 145.3230 0001235  84.4543 346.4802 15.30216242  5831
STARLINK-1577           
1 46063U 20055AN  26061.60231853 -.00005967  00000+0 -19463-3 0  9998
2 46063  53.1550 146.7399 0001136  85.1170 274.9960 15.29352206307981
STARLINK-1583           
1 46064U 20055AP  26061.57123513  .00001892  00000+0  77854-4 0  9998
2 46064  53.1576 146.9015 0001317  89.8225 270.2926 15.29361506307973
STARLINK-1525           
1 46066U 20055AR  26061.91668981  .00028699  00000+0  18570-2 0  9993
2 46066  53.0532 127.0176 0001137 113.5432 132.0324 15.07975874  5785
STARLINK-1536           
1 46070U 20055AV  26061.45193695  .00001782  00000+0  13851-3 0  9994
2 46070  53.0556 129.1114 0001411  90.5500 269.5650 15.06395551308226
STARLINK-1542           
1 46073U 20055AY  26061.44456709  .00002653  00000+0  19695-3 0  9994
2 46073  53.0546 129.1442 0001256  82.0021 278.1111 15.06401319308210
