[{"OBJECT_NAME":"STARLINK-1591","OBJECT_ID":"2020-055U","EPOCH":"2026-03-02T22:00:01.999584","MEAN_MOTION":15.10912214,"ECCENTRICITY":0.0001495,"INCLINATION":53.0708,"RA_OF_ASC_NODE":156.9736,"ARG_OF_PERICENTER":95.7474,"MEAN_ANOMALY":109.4303,"EPHEMERIS_TYPE":0,"CLASSIFICATION_TYPE":"U","NORAD_CAT_ID":46045,"ELEMENT_SET_NO":999,"REV_AT_EPOCH":583,"BSTAR":0.00056198,"MEAN_MOTION_DOT":9.188e-5,"MEAN_MOTION_DDOT":0},{"OBJECT_NAME":"STARLINK-1524","OBJECT_ID":"2020-055W","EPOCH":"2026-03-02T12:44:19.821408","MEAN_MOTION":15.29351427,"ECCENTRICITY":0.000128,"INCLINATION":53.1562,"RA_OF_ASC_NODE":147.0479,"ARG_OF_PERICENTER":91.006,"MEAN_ANOMALY":269.1087,"EPHEMERIS_TYPE":0,"CLASSIFICATION_TYPE":"U","NORAD_CAT_ID":46047,"ELEMENT_SET_NO":999,"REV_AT_EPOCH":30797,"BSTAR":1.8780507e-5,"MEAN_MOTION_DOT":1.86e-6,"MEAN_MOTION_DDOT":0},{"OBJECT_NAME":"STARLINK-1527","OBJECT_ID":"2020-055X","EPOCH":"2026-03-02T11:23:19.543200","MEAN_MOTION":15.29354703,"ECCENTRICITY":0.00015944,"INCLINATION":53.1563,"RA_OF_ASC_NODE":147.4353,"ARG_OF_PERICENTER":89.8463,"MEAN_ANOMALY":270.272,"EPHEMERIS_TYPE":0,"CLASSIFICATION_TYPE":"U","NORAD_CAT_ID":46048,"ELEMENT_SET_NO":999,"REV_AT_EPOCH":30794,"BSTAR":1.906e-9,"MEAN_MOTION_DOT":-3.56e-6,"MEAN_MOTION_DDOT":0},{"OBJECT_NAME":"STARLINK-1540","OBJECT_ID":"2020-055AA","EPOCH":"2026-03-02T13:29:07.760832","MEAN_MOTION":15.29366031,"ECCENTRICITY":8.76e-5,"INCLINATION":53.1592,"RA_OF_ASC_NODE":146.9264,"ARG_OF_PERICENTER":69.5323,"MEAN_ANOMALY":290.5771,"EPHEMERIS_TYPE":0,"CLASSIFICATION_TYPE":"U","NORAD_CAT_ID":46051,"ELEMENT_SET_NO":999,"REV_AT_EPOCH":30799,"BSTAR":0.00018421,"MEAN_MOTION_DOT":4.965e-5,"MEAN_MOTION_DDOT":0},{"OBJECT_NAME":"STARLINK-1541","OBJECT_ID":"2020-055AB","EPOCH":"2026-03-02T22:00:01.999584","MEAN_MOTION":15.29306484,"ECCENTRICITY":9.13e-5,"INCLINATION":53.154,"RA_OF_ASC_NODE":145.3324,"ARG_OF_PERICENTER":72.7876,"MEAN_ANOMALY":132.7132,"EPHEMERIS_TYPE":0,"CLASSIFICATION_TYPE":"U","NORAD_CAT_ID":46052,"ELEMENT_SET_NO":999,"REV_AT_EPOCH":582,"BSTAR":0.0011277,"MEAN_MOTION_DOT":0.00032278,"MEAN_MOTION_DDOT":0},{"OBJECT_NAME":"STARLINK-1543","OBJECT_ID":"2020-055AC","EPOCH":"2026-03-02T22:00:01.999584","MEAN_MOTION":15.29328655,"ECCENTRICITY":0.0001305,"INCLINATION":53.1559,"RA_OF_ASC_NODE":145.3526,"ARG_OF_PERICENTER":98.0442,"MEAN_ANOMALY":75.8192,"EPHEMERIS_TYPE":0,"CLASSIFICATION_TYPE":"U","NORAD_CAT_ID":46053,"ELEMENT_SET_NO":999,"REV_AT_EPOCH":582,"BSTAR":7.414e-5,"MEAN_MOTION_DOT":1.782e-5,"MEAN_MOTION_DDOT":0},{"OBJECT_NAME":"STARLINK-1548","OBJECT_ID":"2020-055AD","EPOCH":"2026-03-02T22:00:01.999584","MEAN_MOTION":15.29361238,"ECCENTRICITY":0.000109,"INCLINATION":53.1565,"RA_OF_ASC_NODE":145.3538,"ARG_OF_PERICENTER":76.4288,"MEAN_ANOMALY":56.9213,"EPHEMERIS_TYPE":0,"CLASSIFICATION_TYPE":"U","NORAD_CAT_ID":46054,"ELEMENT_SET_NO":999,"REV_AT_EPOCH":578,"BSTAR":-0.00041734,"MEAN_MOTION_DOT":-0.0001238,"MEAN_MOTION_DDOT":0},{"OBJECT_NAME":"STARLINK-1554","OBJECT_ID":"2020-055AE","EPOCH":"2026-03-02T22:00:01.999584","MEAN_MOTION":15.29310292,"ECCENTRICITY":0.0001751,"INCLINATION":53.1543,"RA_OF_ASC_NODE":145.4884,"ARG_OF_PERICENTER":73.06,"MEAN_ANOMALY":66.5759,"EPHEMERIS_TYPE":0,"CLASSIFICATION_TYPE":"U","NORAD_CAT_ID":46055,"ELEMENT_SET_NO":999,"REV_AT_EPOCH":583,"BSTAR":0.0014278,"MEAN_MOTION_DOT":0.00041014,"MEAN_MOTION_DDOT":0},{"OBJECT_NAME":"STARLINK-1564","OBJECT_ID":"2020-055AH","EPOCH":"2026-03-02T22:00:01.999584","MEAN_MOTION":15.29396168,"ECCENTRICITY":0.0001074,"INCLINATION":53.1563,"RA_OF_ASC_NODE":145.8262,"ARG_OF_PERICENTER":70.8237,"MEAN_ANOMALY":77.099,"EPHEMERIS_TYPE":0,"CLASSIFICATION_TYPE":"U","NORAD_CAT_ID":46058,"ELEMENT_SET_NO":999,"REV_AT_EPOCH":578,"BSTAR":-9.5111e-5,"MEAN_MOTION_DOT":-3.103e-5,"MEAN_MOTION_DDOT":0},{"OBJECT_NAME":"STARLINK-1570","OBJECT_ID":"2020-055AJ","EPOCH":"2026-03-02T12:38:39.423552","MEAN_MOTION":15.29361082,"ECCENTRICITY":0.00011914,"INCLINATION":53.1575,"RA_OF_ASC_NODE":147.1732,"ARG_OF_PERICENTER":91.7705,"MEAN_ANOMALY":268.3432,"EPHEMERIS_TYPE":0,"CLASSIFICATION_TYPE":"U","NORAD_CAT_ID":46059,"ELEMENT_SET_NO":999,"REV_AT_EPOCH":30793,"BSTAR":-9.057322e-6,"MEAN_MOTION_DOT":-6.17e-6,"MEAN_MOTION_DDOT":0},{"OBJECT_NAME":"STARLINK-1572","OBJECT_ID":"2020-055AK","EPOCH":"2026-03-02T22:00:01.999584","MEAN_MOTION":15.29359932,"ECCENTRICITY":0.0001285,"INCLINATION":53.1545,"RA_OF_ASC_NODE":145.5119,"ARG_OF_PERICENTER":89.9597,"MEAN_ANOMALY":196.8188,"EPHEMERIS_TYPE":0,"CLASSIFICATION_TYPE":"U","NORAD_CAT_ID":46060,"ELEMENT_SET_NO":999,"REV_AT_EPOCH":583,"BSTAR":-0.0005081,"MEAN_MOTION_DOT":-0.0001499,"MEAN_MOTION_DDOT":0},{"OBJECT_NAME":"STARLINK-1573","OBJECT_ID":"2020-055AL","EPOCH":"2026-03-02T22:00:01.999584","MEAN_MOTION":15.30216242,"ECCENTRICITY":0.0001235,"INCLINATION":53.1601,"RA_OF_ASC_NODE":145.323,"ARG_OF_PERICENTER":84.4543,"MEAN_ANOMALY":346.4802,"EPHEMERIS_TYPE":0,"CLASSIFICATION_TYPE":"U","NORAD_CAT_ID":46061,"ELEMENT_SET_NO":999,"REV_AT_EPOCH":583,"BSTAR":-0.00033109,"MEAN_MOTION_DOT":-0.00010157,"MEAN_MOTION_DDOT":0},{"OBJECT_NAME":"STARLINK-1577","OBJECT_ID":"2020-055AN","EPOCH":"2026-03-02T14:27:20.320992","MEAN_MOTION":15.29352206,"ECCENTRICITY":0.0001136,"INCLINATION":53.155,"RA_OF_ASC_NODE":146.7399,"ARG_OF_PERICENTER":85.117,"MEAN_ANOMALY":274.996,"EPHEMERIS_TYPE":0,"CLASSIFICATION_TYPE":"U","NORAD_CAT_ID":46063,"ELEMENT_SET_NO":999,"REV_AT_EPOCH":30798,"BSTAR":-0.00019463,"MEAN_MOTION_DOT":-5.967e-5,"MEAN_MOTION_DDOT":0},{"OBJECT_NAME":"STARLINK-1583","OBJECT_ID":"2020-055AP","EPOCH":"2026-03-02T13:42:34.715232","MEAN_MOTION":15.29361506,"ECCENTRICITY":0.0001317,"INCLINATION":53.1576,"RA_OF_ASC_NODE":146.9015,"ARG_OF_PERICENTER":89.8225,"MEAN_ANOMALY":270.2926,"EPHEMERIS_TYPE":0,"CLASSIFICATION_TYPE":"U","NORAD_CAT_ID":46064,"ELEMENT_SET_NO":999,"REV_AT_EPOCH":30797,"BSTAR":7.7854e-5,"MEAN_MOTION_DOT":1.892e-5,"MEAN_MOTION_DDOT":0},{"OBJECT_NAME":"STARLINK-1525","OBJECT_ID":"2020-055AR","EPOCH":"2026-03-02T22:00:01.999584","MEAN_MOTION":15.07975874,"ECCENTRICITY":0.0001137,"INCLINATION":53.0532,"RA_OF_ASC_NODE":127.0176,"ARG_OF_PERICENTER":113.5432,"MEAN_ANOMALY":132.0324,"EPHEMERIS_TYPE":0,"CLASSIFICATION_TYPE":"U","NORAD_CAT_ID":46066,"ELEMENT_SET_NO":999,"REV_AT_EPOCH":578,"BSTAR":0.001857,"MEAN_MOTION_DOT":0.00028699,"MEAN_MOTION_DDOT":0},{"OBJECT_NAME":"STARLINK-1536","OBJECT_ID":"2020-055AV","EPOCH":"2026-03-02T10:50:47.352480","MEAN_MOTION":15.06395551,"ECCENTRICITY":0.00014118,"INCLINATION":53.0556,"RA_OF_ASC_NODE":129.1114,"ARG_OF_PERICENTER":90.55,"MEAN_ANOMALY":269.565,"EPHEMERIS_TYPE":0,"CLASSIFICATION_TYPE":"U","NORAD_CAT_ID":46070,"ELEMENT_SET_NO":999,"REV_AT_EPOCH":30822,"BSTAR":0.00013851146,"MEAN_MOTION_DOT":1.782e-5,"MEAN_MOTION_DDOT":0},{"OBJECT_NAME":"STARLINK-1542","OBJECT_ID":"2020-055AY","EPOCH":"2026-03-02T10:40:10.596576","MEAN_MOTION":15.06401319,"ECCENTRICITY":0.00012565,"INCLINATION":53.0546,"RA_OF_ASC_NODE":129.1442,"ARG_OF_PERICENTER":82.0021,"MEAN_ANOMALY":278.1111,"EPHEMERIS_TYPE":0,"CLASSIFICATION_TYPE":"U","NORAD_CAT_ID":46073,"ELEMENT_SET_NO":999,"REV_AT_EPOCH":30821,"BSTAR":0.00019695066,"MEAN_MOTION_DOT":2.653e-5,"MEAN_MOTION_DDOT":0}]
